{"fetched_at":"2026-03-28T16:33:49Z","count":6709,"tles":[{"name":"GAOFEN-11 04","line1":"1 54818U 22176A   26086.27811981  .00007200  00000+0  29958-3 0  9997","line2":"2 54818  97.4087 220.4417 0001557 249.9042 110.2028 15.24061334180788","category":"Other"}]}