{
  "norad_id": 54818,
  "name": "GAOFEN-11 04",
  "history": [
    {
      "epoch": "2026-03-27T06:40:29.551584",
      "apogee_km": 494.6754440464638,
      "perigee_km": 492.5355834276852,
      "latitude_deg": 49.10965558919775,
      "longitude_deg": -47.50049823988229,
      "semi_major_axis_km": 6871.742513737074,
      "eccentricity": 0.0001557,
      "inclination_deg": 97.4087,
      "raan_deg": 220.4417,
      "arg_perigee_deg": 249.9042,
      "mean_anomaly_deg": 110.2028,
      "mean_motion_rev_day": 15.24061334
    }
  ]
}